STARLINK-36178          
1 67025U 25293Y   26007.83335648  .00022507  00000+0  36781-3 0  9999
2 67025  70.0001 249.9716 0003424 269.9162 326.1542 15.52496849  4400
STARLINK-36176          
1 67026U 25293Z   26007.78987546  .04356230  00000+0  52367-1 0  9997
2 67026  70.0010 250.0869 0024800 247.7755 112.0804 15.56520300  5707
STARLINK-36171          
1 67027U 25293AA  26007.83335648  .00028473  00000+0  46433-3 0  9994
2 67027  70.0000 249.9686 0003440 269.5140 328.4793 15.52491470  4405
STARLINK-36132          
1 67028U 25293AB  26007.40317413  .00078176  00000+0  12598-2 0  9997
2 67028  70.0009 251.1418 0002635 273.3780  86.7105 15.52548149  5656
STARLINK-36190          
1 67029U 25293AC  26007.78979260 -.00681302  00000+0 -11738-1 0  9990
2 67029  69.9996 250.0835 0008500 307.2111  52.8300 15.53183767  5712
STARLINK-36138          
1 67030U 25294A   26007.83335648  .00032753  00000+0  78838-3 0  9999
2 67030  43.0009  26.2169 0001203 269.7426 340.1902 15.40684029  4284
STARLINK-36150          
1 67031U 25294B   26007.73249689  .00034994  00000+0  84064-3 0  9995
2 67031  43.0070  26.9219 0000992 196.4921 163.5903 15.40718166  5421
STARLINK-36131          
1 67032U 25294C   26007.73921435  .00065438  00000+0  15592-2 0  9998
2 67032  43.0024  26.9712 0001105 251.4269 108.6467 15.40723188  5428
STARLINK-36137          
1 67033U 25294D   26007.34799921  .00039480  00000+0  94666-3 0  9997
2 67033  43.0031  29.1916 0001966 270.8673  89.1958 15.40725262  5363
STARLINK-36140          
1 67034U 25294E   26007.27645803  .00062433  00000+0  14887-2 0  9999
2 67034  43.0003  29.5148 0000808 226.4115 133.6674 15.40718772  5353
STARLINK-36085          
1 67035U 25294F   26007.83335648  .00030560  00000+0  73695-3 0  9994
2 67035  43.0007  25.8836 0001171 281.7792 105.0447 15.40657859  4280
STARLINK-36125          
1 67036U 25294G   26006.53439792  .00104892  00000+0  17649-2 0  9992
2 67036  43.0046  33.4029 0004166 266.5577  93.4806 15.50651953  5248
