CCSDS_OMM_VERS = 2.0
CREATION_DATE  = 
ORIGINATOR     = 

OBJECT_NAME    = STARLINK-36178
OBJECT_ID      = 2025-293Y
CENTER_NAME    = EARTH
REF_FRAME      = TEME
TIME_SYSTEM    = UTC
MEAN_ELEMENT_THEORY = SGP/SGP4

EPOCH          = 2026-01-07T20:00:01.999872
MEAN_MOTION    = 15.52496849
ECCENTRICITY   = .0003424
INCLINATION    = 70.0001
RA_OF_ASC_NODE = 249.9716
ARG_OF_PERICENTER = 269.9162
MEAN_ANOMALY   = 326.1542

EPHEMERIS_TYPE = 0
CLASSIFICATION_TYPE = U
NORAD_CAT_ID   = 67025
ELEMENT_SET_NO = 999
REV_AT_EPOCH   = 440
BSTAR          = .36781E-3
MEAN_MOTION_DOT = .22507E-3
MEAN_MOTION_DDOT = 0

CCSDS_OMM_VERS = 2.0
CREATION_DATE  = 
ORIGINATOR     = 

OBJECT_NAME    = STARLINK-36176
OBJECT_ID      = 2025-293Z
CENTER_NAME    = EARTH
REF_FRAME      = TEME
TIME_SYSTEM    = UTC
MEAN_ELEMENT_THEORY = SGP/SGP4

EPOCH          = 2026-01-07T18:57:25.239744
MEAN_MOTION    = 15.56520300
ECCENTRICITY   = .00248
INCLINATION    = 70.0010
RA_OF_ASC_NODE = 250.0869
ARG_OF_PERICENTER = 247.7755
MEAN_ANOMALY   = 112.0804

EPHEMERIS_TYPE = 0
CLASSIFICATION_TYPE = U
NORAD_CAT_ID   = 67026
ELEMENT_SET_NO = 999
REV_AT_EPOCH   = 570
BSTAR          = .52367E-1
MEAN_MOTION_DOT = .435623E-1
MEAN_MOTION_DDOT = 0

CCSDS_OMM_VERS = 2.0
CREATION_DATE  = 
ORIGINATOR     = 

OBJECT_NAME    = STARLINK-36171
OBJECT_ID      = 2025-293AA
CENTER_NAME    = EARTH
REF_FRAME      = TEME
TIME_SYSTEM    = UTC
MEAN_ELEMENT_THEORY = SGP/SGP4

EPOCH          = 2026-01-07T20:00:01.999872
MEAN_MOTION    = 15.52491470
ECCENTRICITY   = .000344
INCLINATION    = 70.0000
RA_OF_ASC_NODE = 249.9686
ARG_OF_PERICENTER = 269.5140
MEAN_ANOMALY   = 328.4793

EPHEMERIS_TYPE = 0
CLASSIFICATION_TYPE = U
NORAD_CAT_ID   = 67027
ELEMENT_SET_NO = 999
REV_AT_EPOCH   = 440
BSTAR          = .46433E-3
MEAN_MOTION_DOT = .28473E-3
MEAN_MOTION_DDOT = 0

CCSDS_OMM_VERS = 2.0
CREATION_DATE  = 
ORIGINATOR     = 

OBJECT_NAME    = STARLINK-36132
OBJECT_ID      = 2025-293AB
CENTER_NAME    = EARTH
REF_FRAME      = TEME
TIME_SYSTEM    = UTC
MEAN_ELEMENT_THEORY = SGP/SGP4

EPOCH          = 2026-01-07T09:40:34.244832
MEAN_MOTION    = 15.52548149
ECCENTRICITY   = .0002635
INCLINATION    = 70.0009
RA_OF_ASC_NODE = 251.1418
ARG_OF_PERICENTER = 273.3780
MEAN_ANOMALY   = 86.7105

EPHEMERIS_TYPE = 0
CLASSIFICATION_TYPE = U
NORAD_CAT_ID   = 67028
ELEMENT_SET_NO = 999
REV_AT_EPOCH   = 565
BSTAR          = .12598E-2
MEAN_MOTION_DOT = .78176E-3
MEAN_MOTION_DDOT = 0

CCSDS_OMM_VERS = 2.0
CREATION_DATE  = 
ORIGINATOR     = 

OBJECT_NAME    = STARLINK-36190
OBJECT_ID      = 2025-293AC
CENTER_NAME    = EARTH
REF_FRAME      = TEME
TIME_SYSTEM    = UTC
MEAN_ELEMENT_THEORY = SGP/SGP4

EPOCH          = 2026-01-07T18:57:18.080640
MEAN_MOTION    = 15.53183767
ECCENTRICITY   = .00085
INCLINATION    = 69.9996
RA_OF_ASC_NODE = 250.0835
ARG_OF_PERICENTER = 307.2111
MEAN_ANOMALY   = 52.8300

EPHEMERIS_TYPE = 0
CLASSIFICATION_TYPE = U
NORAD_CAT_ID   = 67029
ELEMENT_SET_NO = 999
REV_AT_EPOCH   = 571
BSTAR          = -.11738E-1
MEAN_MOTION_DOT = -.681302E-2
MEAN_MOTION_DDOT = 0

CCSDS_OMM_VERS = 2.0
CREATION_DATE  = 
ORIGINATOR     = 

OBJECT_NAME    = STARLINK-36138
OBJECT_ID      = 2025-294A
CENTER_NAME    = EARTH
REF_FRAME      = TEME
TIME_SYSTEM    = UTC
MEAN_ELEMENT_THEORY = SGP/SGP4

EPOCH          = 2026-01-07T20:00:01.999872
MEAN_MOTION    = 15.40684029
ECCENTRICITY   = .0001203
INCLINATION    = 43.0009
RA_OF_ASC_NODE = 26.2169
ARG_OF_PERICENTER = 269.7426
MEAN_ANOMALY   = 340.1902

EPHEMERIS_TYPE = 0
CLASSIFICATION_TYPE = U
NORAD_CAT_ID   = 67030
ELEMENT_SET_NO = 999
REV_AT_EPOCH   = 428
BSTAR          = .78838E-3
MEAN_MOTION_DOT = .32753E-3
MEAN_MOTION_DDOT = 0

CCSDS_OMM_VERS = 2.0
CREATION_DATE  = 
ORIGINATOR     = 

OBJECT_NAME    = STARLINK-36150
OBJECT_ID      = 2025-294B
CENTER_NAME    = EARTH
REF_FRAME      = TEME
TIME_SYSTEM    = UTC
MEAN_ELEMENT_THEORY = SGP/SGP4

EPOCH          = 2026-01-07T17:34:47.731296
MEAN_MOTION    = 15.40718166
ECCENTRICITY   = .0000992
INCLINATION    = 43.0070
RA_OF_ASC_NODE = 26.9219
ARG_OF_PERICENTER = 196.4921
MEAN_ANOMALY   = 163.5903

EPHEMERIS_TYPE = 0
CLASSIFICATION_TYPE = U
NORAD_CAT_ID   = 67031
ELEMENT_SET_NO = 999
REV_AT_EPOCH   = 542
BSTAR          = .84064E-3
MEAN_MOTION_DOT = .34994E-3
MEAN_MOTION_DDOT = 0

CCSDS_OMM_VERS = 2.0
CREATION_DATE  = 
ORIGINATOR     = 

OBJECT_NAME    = STARLINK-36131
OBJECT_ID      = 2025-294C
CENTER_NAME    = EARTH
REF_FRAME      = TEME
TIME_SYSTEM    = UTC
MEAN_ELEMENT_THEORY = SGP/SGP4

EPOCH          = 2026-01-07T17:44:28.119840
MEAN_MOTION    = 15.40723188
ECCENTRICITY   = .0001105
INCLINATION    = 43.0024
RA_OF_ASC_NODE = 26.9712
ARG_OF_PERICENTER = 251.4269
MEAN_ANOMALY   = 108.6467

EPHEMERIS_TYPE = 0
CLASSIFICATION_TYPE = U
NORAD_CAT_ID   = 67032
ELEMENT_SET_NO = 999
REV_AT_EPOCH   = 542
BSTAR          = .15592E-2
MEAN_MOTION_DOT = .65438E-3
MEAN_MOTION_DDOT = 0

CCSDS_OMM_VERS = 2.0
CREATION_DATE  = 
ORIGINATOR     = 

OBJECT_NAME    = STARLINK-36137
OBJECT_ID      = 2025-294D
CENTER_NAME    = EARTH
REF_FRAME      = TEME
TIME_SYSTEM    = UTC
MEAN_ELEMENT_THEORY = SGP/SGP4

EPOCH          = 2026-01-07T08:21:07.131744
MEAN_MOTION    = 15.40725262
ECCENTRICITY   = .0001966
INCLINATION    = 43.0031
RA_OF_ASC_NODE = 29.1916
ARG_OF_PERICENTER = 270.8673
MEAN_ANOMALY   = 89.1958

EPHEMERIS_TYPE = 0
CLASSIFICATION_TYPE = U
NORAD_CAT_ID   = 67033
ELEMENT_SET_NO = 999
REV_AT_EPOCH   = 536
BSTAR          = .94666E-3
MEAN_MOTION_DOT = .3948E-3
MEAN_MOTION_DDOT = 0

CCSDS_OMM_VERS = 2.0
CREATION_DATE  = 
ORIGINATOR     = 

OBJECT_NAME    = STARLINK-36140
OBJECT_ID      = 2025-294E
CENTER_NAME    = EARTH
REF_FRAME      = TEME
TIME_SYSTEM    = UTC
MEAN_ELEMENT_THEORY = SGP/SGP4

EPOCH          = 2026-01-07T06:38:05.973792
MEAN_MOTION    = 15.40718772
ECCENTRICITY   = .00008086
INCLINATION    = 43.0003
RA_OF_ASC_NODE = 29.5148
ARG_OF_PERICENTER = 226.4115
MEAN_ANOMALY   = 133.6674

EPHEMERIS_TYPE = 0
CLASSIFICATION_TYPE = U
NORAD_CAT_ID   = 67034
ELEMENT_SET_NO = 999
REV_AT_EPOCH   = 535
BSTAR          = .14887311E-2
MEAN_MOTION_DOT = .62433E-3
MEAN_MOTION_DDOT = 0

CCSDS_OMM_VERS = 2.0
CREATION_DATE  = 
ORIGINATOR     = 

OBJECT_NAME    = STARLINK-36085
OBJECT_ID      = 2025-294F
CENTER_NAME    = EARTH
REF_FRAME      = TEME
TIME_SYSTEM    = UTC
MEAN_ELEMENT_THEORY = SGP/SGP4

EPOCH          = 2026-01-07T20:00:01.999872
MEAN_MOTION    = 15.40657859
ECCENTRICITY   = .0001171
INCLINATION    = 43.0007
RA_OF_ASC_NODE = 25.8836
ARG_OF_PERICENTER = 281.7792
MEAN_ANOMALY   = 105.0447

EPHEMERIS_TYPE = 0
CLASSIFICATION_TYPE = U
NORAD_CAT_ID   = 67035
ELEMENT_SET_NO = 999
REV_AT_EPOCH   = 428
BSTAR          = .73695E-3
MEAN_MOTION_DOT = .3056E-3
MEAN_MOTION_DDOT = 0

CCSDS_OMM_VERS = 2.0
CREATION_DATE  = 
ORIGINATOR     = 

OBJECT_NAME    = STARLINK-36125
OBJECT_ID      = 2025-294G
CENTER_NAME    = EARTH
REF_FRAME      = TEME
TIME_SYSTEM    = UTC
MEAN_ELEMENT_THEORY = SGP/SGP4

EPOCH          = 2026-01-06T12:49:31.980288
MEAN_MOTION    = 15.50651953
ECCENTRICITY   = .00041665
INCLINATION    = 43.0046
RA_OF_ASC_NODE = 33.4029
ARG_OF_PERICENTER = 266.5577
MEAN_ANOMALY   = 93.4806

EPHEMERIS_TYPE = 0
CLASSIFICATION_TYPE = U
NORAD_CAT_ID   = 67036
ELEMENT_SET_NO = 999
REV_AT_EPOCH   = 524
BSTAR          = .17649416E-2
MEAN_MOTION_DOT = .104892E-2
MEAN_MOTION_DDOT = 0

